{
  "type": "FeatureCollection",
  "features": [
    {
      "type": "Feature",
      "properties": {
        "norad_id": 58647,
        "name": "TIANMU-1 13",
        "group": "weather",
        "lat": -24.02158092663136,
        "lon": -179.15288822975725,
        "alt_km": 496.8101545738509,
        "timestamp": "2025-12-10T11:33:53.034627+00:00",
        "meta_object_name": "TIANMU-1 13",
        "meta_object_id": "2023-205C",
        "meta_epoch": "2025-12-10T04:22:12.696096",
        "meta_mean_motion": 15.24472468,
        "meta_eccentricity": 0.0006049,
        "meta_inclination": 97.3625,
        "meta_ra_of_asc_node": 3.8562,
        "meta_arg_of_pericenter": 279.0368,
        "meta_mean_anomaly": 81.0185,
        "meta_ephemeris_type": 0,
        "meta_classification_type": "U",
        "meta_norad_cat_id": 58647,
        "meta_element_set_no": 999,
        "meta_rev_at_epoch": 10868,
        "meta_bstar": 0.00035097,
        "meta_mean_motion_dot": 8.557e-05,
        "meta_mean_motion_ddot": 0,
        "tle_line1": "1 58647U 23205C   25344.18209139  .00008557  00000+0  35097-3 0  9994",
        "tle_line2": "2 58647  97.3625   3.8562 0006049 279.0368  81.0185 15.24472468108681"
      },
      "geometry": {
        "type": "Point",
        "coordinates": [
          -179.15288822975725,
          -24.02158092663136
        ]
      }
    },
    {
      "type": "Feature",
      "properties": {
        "norad_id": 58648,
        "name": "TIANMU-1 14",
        "group": "weather",
        "lat": -63.701914489049436,
        "lon": 18.654810885933486,
        "alt_km": 495.0042869776016,
        "timestamp": "2025-12-10T11:33:53.034638+00:00",
        "meta_object_name": "TIANMU-1 14",
        "meta_object_id": "2023-205D",
        "meta_epoch": "2025-12-10T03:58:15.946176",
        "meta_mean_motion": 15.24455507,
        "meta_eccentricity": 0.0006902,
        "meta_inclination": 97.3557,
        "meta_ra_of_asc_node": 3.191,
        "meta_arg_of_pericenter": 284.2734,
        "meta_mean_anomaly": 75.7737,
        "meta_ephemeris_type": 0,
        "meta_classification_type": "U",
        "meta_norad_cat_id": 58648,
        "meta_element_set_no": 999,
        "meta_rev_at_epoch": 10868,
        "meta_bstar": 0.0003477,
        "meta_mean_motion_dot": 8.473e-05,
        "meta_mean_motion_ddot": 0,
        "tle_line1": "1 58648U 23205D   25344.16546234  .00008473  00000+0  34770-3 0  9997",
        "tle_line2": "2 58648  97.3557   3.1910 0006902 284.2734  75.7737 15.24455507108687"
      },
      "geometry": {
        "type": "Point",
        "coordinates": [
          18.654810885933486,
          -63.701914489049436
        ]
      }
    },
    {
      "type": "Feature",
      "properties": {
        "norad_id": 58660,
        "name": "TIANMU-1 19",
        "group": "weather",
        "lat": 16.571512468164393,
        "lon": -82.24837131563807,
        "alt_km": 483.64541369755625,
        "timestamp": "2025-12-10T11:33:53.034648+00:00",
        "meta_object_name": "TIANMU-1 19",
        "meta_object_id": "2023-208A",
        "meta_epoch": "2025-12-10T04:33:53.025120",
        "meta_mean_motion": 15.27774046,
        "meta_eccentricity": 0.000405,
        "meta_inclination": 97.4388,
        "meta_ra_of_asc_node": 95.2324,
        "meta_arg_of_pericenter": 264.4903,
        "meta_mean_anomaly": 95.5874,
        "meta_ephemeris_type": 0,
        "meta_classification_type": "U",
        "meta_norad_cat_id": 58660,
        "meta_element_set_no": 999,
        "meta_rev_at_epoch": 10843,
        "meta_bstar": 0.00050995,
        "meta_mean_motion_dot": 0.00013774,
        "meta_mean_motion_ddot": 0,
        "tle_line1": "1 58660U 23208A   25344.19019705  .00013774  00000+0  50995-3 0  9992",
        "tle_line2": "2 58660  97.4388  95.2324 0004050 264.4903  95.5874 15.27774046108435"
      },
      "geometry": {
        "type": "Point",
        "coordinates": [
          -82.24837131563807,
          16.571512468164393
        ]
      }
    },
    {
      "type": "Feature",
      "properties": {
        "norad_id": 58661,
        "name": "TIANMU-1 20",
        "group": "weather",
        "lat": -47.29664956446948,
        "lon": -92.16330421596335,
        "alt_km": 482.8571742754448,
        "timestamp": "2025-12-10T11:33:53.034658+00:00",
        "meta_object_name": "TIANMU-1 20",
        "meta_object_id": "2023-208B",
        "meta_epoch": "2025-12-10T05:51:32.469984",
        "meta_mean_motion": 15.28966974,
        "meta_eccentricity": 0.0006294,
        "meta_inclination": 97.4326,
        "meta_ra_of_asc_node": 95.7314,
        "meta_arg_of_pericenter": 276.5354,
        "meta_mean_anomaly": 83.5169,
        "meta_ephemeris_type": 0,
        "meta_classification_type": "U",
        "meta_norad_cat_id": 58661,
        "meta_element_set_no": 999,
        "meta_rev_at_epoch": 10851,
        "meta_bstar": 0.0004742,
        "meta_mean_motion_dot": 0.00013282,
        "meta_mean_motion_ddot": 0,
        "tle_line1": "1 58661U 23208B   25344.24412581  .00013282  00000+0  47420-3 0  9991",
        "tle_line2": "2 58661  97.4326  95.7314 0006294 276.5354  83.5169 15.28966974108515"
      },
      "geometry": {
        "type": "Point",
        "coordinates": [
          -92.16330421596335,
          -47.29664956446948
        ]
      }
    },
    {
      "type": "Feature",
      "properties": {
        "norad_id": 58662,
        "name": "TIANMU-1 21",
        "group": "weather",
        "lat": -31.919003448869432,
        "lon": -86.80027799539197,
        "alt_km": 475.4350357239755,
        "timestamp": "2025-12-10T11:33:53.034668+00:00",
        "meta_object_name": "TIANMU-1 21",
        "meta_object_id": "2023-208C",
        "meta_epoch": "2025-12-10T05:56:10.977792",
        "meta_mean_motion": 15.31464302,
        "meta_eccentricity": 0.0005869,
        "meta_inclination": 97.4374,
        "meta_ra_of_asc_node": 97.6319,
        "meta_arg_of_pericenter": 270.6549,
        "meta_mean_anomaly": 89.402,
        "meta_ephemeris_type": 0,
        "meta_classification_type": "U",
        "meta_norad_cat_id": 58662,
        "meta_element_set_no": 999,
        "meta_rev_at_epoch": 10861,
        "meta_bstar": 0.00050957,
        "meta_mean_motion_dot": 0.00015427,
        "meta_mean_motion_ddot": 0,
        "tle_line1": "1 58662U 23208C   25344.24734928  .00015427  00000+0  50957-3 0  9996",
        "tle_line2": "2 58662  97.4374  97.6319 0005869 270.6549  89.4020 15.31464302108617"
      },
      "geometry": {
        "type": "Point",
        "coordinates": [
          -86.80027799539197,
          -31.919003448869432
        ]
      }
    },
    {
      "type": "Feature",
      "properties": {
        "norad_id": 58663,
        "name": "TIANMU-1 22",
        "group": "weather",
        "lat": 13.395246837201004,
        "lon": -82.63357034614077,
        "alt_km": 485.64262210318157,
        "timestamp": "2025-12-10T11:33:53.034678+00:00",
        "meta_object_name": "TIANMU-1 22",
        "meta_object_id": "2023-208D",
        "meta_epoch": "2025-12-10T04:32:59.356032",
        "meta_mean_motion": 15.27533721,
        "meta_eccentricity": 0.0002751,
        "meta_inclination": 97.4382,
        "meta_ra_of_asc_node": 95.292,
        "meta_arg_of_pericenter": 300.1914,
        "meta_mean_anomaly": 59.9052,
        "meta_ephemeris_type": 0,
        "meta_classification_type": "U",
        "meta_norad_cat_id": 58663,
        "meta_element_set_no": 999,
        "meta_rev_at_epoch": 10844,
        "meta_bstar": 0.00047246,
        "meta_mean_motion_dot": 0.0001266,
        "meta_mean_motion_ddot": 0,
        "tle_line1": "1 58663U 23208D   25344.18957588  .00012660  00000+0  47246-3 0  9992",
        "tle_line2": "2 58663  97.4382  95.2920 0002751 300.1914  59.9052 15.27533721108446"
      },
      "geometry": {
        "type": "Point",
        "coordinates": [
          -82.63357034614077,
          13.395246837201004
        ]
      }
    },
    {
      "type": "Feature",
      "properties": {
        "norad_id": 58700,
        "name": "TIANMU-1 15",
        "group": "weather",
        "lat": -40.18001701612017,
        "lon": 172.31553217917386,
        "alt_km": 494.91138638483244,
        "timestamp": "2025-12-10T11:33:53.034689+00:00",
        "meta_object_name": "TIANMU-1 15",
        "meta_object_id": "2024-004A",
        "meta_epoch": "2025-12-10T03:51:59.333760",
        "meta_mean_motion": 15.24624445,
        "meta_eccentricity": 0.00053,
        "meta_inclination": 97.4631,
        "meta_ra_of_asc_node": 165.6403,
        "meta_arg_of_pericenter": 309.5893,
        "meta_mean_anomaly": 50.4876,
        "meta_ephemeris_type": 0,
        "meta_classification_type": "U",
        "meta_norad_cat_id": 58700,
        "meta_element_set_no": 999,
        "meta_rev_at_epoch": 10695,
        "meta_bstar": 0.00038281,
        "meta_mean_motion_dot": 9.381e-05,
        "meta_mean_motion_ddot": 0,
        "tle_line1": "1 58700U 24004A   25344.16110340  .00009381  00000+0  38281-3 0  9999",
        "tle_line2": "2 58700  97.4631 165.6403 0005300 309.5893  50.4876 15.24624445106950"
      },
      "geometry": {
        "type": "Point",
        "coordinates": [
          172.31553217917386,
          -40.18001701612017
        ]
      }
    }
  ]
}